GLOBALSTAR M067         
1 32263U 07048A   25130.05574365 -.00000057  00000+0  29600-3 0  9993
2 32263  51.9697 147.5077 0001000 261.7261 115.2512 12.40672051804997
GLOBALSTAR M070         
1 32264U 07048B   25129.82964336 -.00000093  00000+0  60172-4 0  9998
2 32264  51.9747 245.3560 0000663 109.3359  33.3864 12.62317588808828
GLOBALSTAR M066         
1 32265U 07048C   25129.36249907 -.00000065  00000+0  24166-3 0  9999
2 32265  51.9615 137.8616 0001687 163.8729 303.9241 12.35103743810502
GLOBALSTAR M068         
1 32266U 07048D   25130.26132660 -.00000102  00000+0  11363-4 0  9996
2 32266  51.9896  57.8648 0001561  52.9668 111.7191 12.62822512813055
GLOBALSTAR M079         
1 37188U 10054A   25129.53902966 -.00000102  00000+0  71954-5 0  9990
2 37188  52.0037 257.4358 0000776 145.6659 294.0935 12.62273899671573
GLOBALSTAR M074         
1 37189U 10054B   25129.81275728 -.00000107  00000+0 -19237-4 0  9992
2 37189  52.0016 255.9327 0000492 123.4321 359.5019 12.62274799672217
GLOBALSTAR M076         
1 37190U 10054C   25129.51219502 -.00000109  00000+0 -31620-4 0  9991
2 37190  52.0027 257.0130 0000490 146.3162 291.3533 12.62262429671895
GLOBALSTAR M077         
1 37191U 10054D   25129.42043150 -.00000087  00000+0  91123-4 0  9994
2 37191  52.0063 214.1399 0000395 138.0025 301.7384 12.62267819672256
